OBJECT_NAME,OBJECT_ID,EPOCH,MEAN_MOTION,ECCENTRICITY,INCLINATION,RA_OF_ASC_NODE,ARG_OF_PERICENTER,MEAN_ANOMALY,EPHEMERIS_TYPE,CLASSIFICATION_TYPE,NORAD_CAT_ID,ELEMENT_SET_NO,REV_AT_EPOCH,BSTAR,MEAN_MOTION_DOT,MEAN_MOTION_DDOT
SKYSAT-C4,2016-058B,2026-07-02T12:21:41.139936,15.49073522,.0002682,96.9163,204.6492,136.9395,223.2067,0,U,41771,999,54784,.31364E-3,.16943E-3,0
SKYSAT-C5,2016-058C,2026-07-02T13:23:36.405600,15.34689761,.0001929,97.0457,223.5135,191.1565,168.9636,0,U,41772,999,54610,.24494E-3,.8161E-4,0
SKYSAT-C2,2016-058D,2026-07-02T12:10:05.068704,15.42422166,.0003095,97.0157,205.0276,35.1198,325.0254,0,U,41773,999,54741,.28849E-3,.12396E-3,0
SKYSAT-C3,2016-058E,2026-07-02T19:15:22.269312,15.53216241,.0001587,96.8995,214.0541,132.8272,227.3116,0,U,41774,999,54853,.40942E-3,.25681E-3,0
ALSAT-1B,2016-059C,2026-07-02T20:55:15.161664,14.72287583,.0009389,97.7744,191.9585,166.5458,193.6002,0,U,41785,999,52288,.11146E-3,.657E-5,0
PATHFINDER 1,2016-059E,2026-07-02T19:36:40.089888,14.67681735,.0029061,97.8169,182.3881,153.7681,206.5004,0,U,41787,999,52200,.13881E-3,.748E-5,0
SCATSAT 1,2016-059H,2026-07-02T15:11:18.323808,14.79561787,.0054286,98.1185,247.5581,196.9452,162.9947,0,U,41790,999,10387,.20536E-3,.1519E-4,0
GOKTURK 1A,2016-073A,2026-07-02T20:12:10.962720,14.62785994,.0001404,98.1235,78.2702,78.9991,281.1369,0,U,41875,999,51111,.10522E-3,.49E-5,0
RESOURCESAT-2A,2016-074A,2026-07-02T20:04:27.906240,14.21605459,.0003017,98.7527,257.2127,53.1724,306.9729,0,U,41877,999,49652,.93406E-4,.161E-5,0
CARTOSAT-2D,2017-008A,2026-07-02T20:00:55.035648,15.19202800,.000478,97.4097,242.8477,176.6069,183.5199,0,U,41948,999,51995,.21492E-3,.4457E-4,0
SENTINEL-2B,2017-013A,2026-07-02T19:14:42.512352,14.30821893,.0001198,98.5692,258.3559,89.1282,271.0038,0,U,42063,999,48687,.11946E-3,.27E-5,0
CARTOSAT-2E,2017-036C,2026-07-02T20:26:33.107712,15.19284257,.0002455,97.4260,243.3962,238.6559,121.4436,0,U,42767,999,50052,.16129E-3,.3335E-4,0
FORMOSAT-5,2017-049A,2026-07-02T18:38:10.071744,14.50904612,.0012137,98.2251,258.7398,40.6850,319.5250,0,U,42920,999,46893,.62165E-4,.202E-5,0
SENTINEL-5P,2017-064A,2026-07-02T20:23:39.230304,14.19521617,.0001056,98.7927,125.8697,91.7647,268.3650,0,U,42969,999,45178,.50098E-4,.61E-6,0
SKYSAT-C11,2017-068A,2026-07-02T20:30:15.067584,15.58726723,.0000549,97.4374,333.3766,157.1121,203.0159,0,U,42987,999,48568,.4382E-3,.33708E-3,0
SKYSAT-C10,2017-068B,2026-07-02T19:25:55.762752,15.34904040,.0001253,97.4529,320.8125,108.7727,251.3652,0,U,42988,999,48475,.32847E-3,.11042E-3,0
SKYSAT-C9,2017-068C,2026-07-02T19:34:51.252672,15.41951093,.000939,97.4450,321.9041,83.9821,276.2496,0,U,42989,999,48516,.35656E-3,.15119E-3,0
SKYSAT-C8,2017-068D,2026-07-02T19:43:56.529984,15.37283391,.0001266,97.4548,320.6850,94.9370,265.2019,0,U,42990,999,48471,.3362E-3,.12202E-3,0
SKYSAT-C7,2017-068E,2026-07-02T19:35:27.021408,15.37235684,.00067,97.4558,321.6696,60.6962,299.4951,0,U,42991,999,48477,.33188E-3,.12033E-3,0
SKYSAT-C6,2017-068F,2026-07-02T19:12:39.735360,15.34234376,.0005221,97.4593,321.5616,108.7442,251.4368,0,U,42992,999,48471,.3131E-3,.10302E-3,0
CARTOSAT-2F,2018-004A,2026-07-02T21:13:14.058336,15.19189060,.0001644,97.4778,243.3653,157.3890,202.7417,0,U,43111,999,46971,.20763E-3,.43E-4,0
GAOFEN-1 02,2018-031A,2026-07-02T21:15:44.568000,14.76458121,.0002284,98.0521,246.3684,347.0079,13.1071,0,U,43259,999,44501,.14169E-3,.934E-5,0
GAOFEN-1 03,2018-031B,2026-07-02T20:44:05.478720,14.76448370,.0003308,98.0510,246.2035,46.2783,313.8700,0,U,43260,999,44500,.12867E-3,.844E-5,0
GAOFEN-1 04,2018-031D,2026-07-02T20:09:12.328128,14.76455309,.0001816,98.0523,246.3718,61.1589,298.9803,0,U,43262,999,44499,.69633E-4,.433E-5,0
SENTINEL-3B,2018-039A,2026-07-02T11:28:21.061056,14.26739163,.0000853,98.6244,250.7906,115.3560,244.7708,0,U,43437,999,42630,.76068E-4,.14E-5,0
GAOFEN-5 01,2018-043A,2026-07-02T16:20:24.885312,14.60616345,.0002701,98.4579,155.5932,55.5650,304.5805,0,U,43461,999,43395,.88497E-4,.381E-5,0
GAOFEN-6,2018-048A,2026-07-02T20:40:38.538624,14.76368337,.0011926,98.0964,246.5337,116.3117,243.9319,0,U,43484,999,43570,-.24837E-4,-.225E-5,0
GAOFEN-11 01,2018-063A,2026-07-02T20:52:47.550720,15.55739688,.0002094,97.1282,250.7086,267.1191,92.9825,0,U,43585,999,44278,.1849E-3,.12641E-3,0
ICESAT-2,2018-070A,2026-07-02T19:18:27.302688,15.28160519,.0006119,92.0095,295.1986,91.1082,269.0868,0,U,43613,999,43484,.36532E-3,.10031E-3,0
HYSIS,2018-096A,2026-07-02T20:14:36.895776,14.78648257,.000187,97.9836,250.4684,88.8155,271.3270,0,U,43719,999,40973,.12961E-3,.898E-5,0
KAZSTSAT,2018-099AB,2026-07-02T13:47:58.884576,14.99922730,.0008299,97.4302,214.8068,26.1477,334.0165,0,U,43783,999,41361,.17615E-3,.2131E-4,0
